start=new Date('2022-11-26T00:00:00.000Z').valueOf();
sats=[{"RCS_SIZE":"LARGE","REV_AT_EPOCH":"130","TIME_SYSTEM":"UTC","MEAN_MOTION_DOT":"0.00093554","LAUNCH_DATE":"2022-10-28","PERIOD":"91.533","OBJECT_NAME":"STARLINK-5182","MEAN_MOTION_DDOT":"0.0000000000000","REF_FRAME":"TEME","ARG_OF_PERICENTER":"3.2500","CLASSIFICATION_TYPE":"U","SITE":"AFWTR","EPHEMERIS_TYPE":"0","OBJECT_ID":"2022-141AJ","OBJECT_TYPE":"PAYLOAD","EPOCH":"2022-11-25T22:00:00.999936","CENTER_NAME":"EARTH","SEMIMAJOR_AXIS":"6727.866","APOAPSIS":"352.371","ELEMENT_SET_NO":"999","TLE_LINE2":"2 54189  53.2174   1.0052 0003924   3.2500 189.7823 15.73210158  1302","TLE_LINE1":"1 54189U 22141AJ  22329.91667824  .00093554  00000-0  66311-3 0  9994","COUNTRY_CODE":"US","BSTAR":"0.00066311000000","RA_OF_ASC_NODE":"1.0052","FILE":"3670141","MEAN_ELEMENT_THEORY":"SGP4","NORAD_CAT_ID":"54189","INCLINATION":"53.2174","MEAN_ANOMALY":"189.7823","MEAN_MOTION":"15.73210158","DECAY_DATE":null,"GP_ID":"218823754","ECCENTRICITY":"0.00039240","PERIAPSIS":"347.091"},{"CENTER_NAME":"EARTH","OBJECT_ID":"2022-141AK","SITE":"AFWTR","EPHEMERIS_TYPE":"0","CLASSIFICATION_TYPE":"U","ARG_OF_PERICENTER":"6.0620","EPOCH":"2022-11-25T22:00:00.999936","OBJECT_TYPE":"PAYLOAD","PERIOD":"91.531","LAUNCH_DATE":"2022-10-28","MEAN_MOTION_DOT":"0.00022638","REF_FRAME":"TEME","OBJECT_NAME":"STARLINK-5281","MEAN_MOTION_DDOT":"0.0000000000000","RCS_SIZE":"LARGE","TIME_SYSTEM":"UTC","REV_AT_EPOCH":"130","GP_ID":"218823244","DECAY_DATE":null,"PERIAPSIS":"347.380","ECCENTRICITY":"0.00033750","MEAN_ANOMALY":"190.0179","NORAD_CAT_ID":"54190","INCLINATION":"53.2166","MEAN_MOTION":"15.73238298","COUNTRY_CODE":"US","TLE_LINE2":"2 54190  53.2166   0.9965 0003375   6.0620 190.0179 15.73238298  1304","ELEMENT_SET_NO":"999","TLE_LINE1":"1 54190U 22141AK  22329.91667824  .00022638  00000-0  16499-3 0  9993","MEAN_ELEMENT_THEORY":"SGP4","FILE":"3670141","RA_OF_ASC_NODE":"0.9965","BSTAR":"0.00016499000000","APOAPSIS":"351.922","SEMIMAJOR_AXIS":"6727.786"},{"EPOCH":"2022-11-25T22:00:00.999936","OBJECT_TYPE":"PAYLOAD","CLASSIFICATION_TYPE":"U","ARG_OF_PERICENTER":"2.3793","OBJECT_ID":"2022-141AL","EPHEMERIS_TYPE":"0","SITE":"AFWTR","CENTER_NAME":"EARTH","REV_AT_EPOCH":"130","TIME_SYSTEM":"UTC","RCS_SIZE":"LARGE","MEAN_MOTION_DDOT":"0.0000000000000","OBJECT_NAME":"STARLINK-4619","REF_FRAME":"TEME","LAUNCH_DATE":"2022-10-28","MEAN_MOTION_DOT":"-0.00011067","PERIOD":"91.530","MEAN_MOTION":"15.73256488","INCLINATION":"53.2168","NORAD_CAT_ID":"54191","MEAN_ANOMALY":"191.3038","ECCENTRICITY":"0.00037320","PERIAPSIS":"347.088","GP_ID":"218823420","DECAY_DATE":null,"SEMIMAJOR_AXIS":"6727.734","APOAPSIS":"352.110","BSTAR":"-0.00007429700000","RA_OF_ASC_NODE":"1.0015","FILE":"3670141","MEAN_ELEMENT_THEORY":"SGP4","TLE_LINE2":"2 54191  53.2168   1.0015 0003732   2.3793 191.3038 15.73256488  1301","TLE_LINE1":"1 54191U 22141AL  22329.91667824 -.00011067  00000-0 -74297-4 0  9991","ELEMENT_SET_NO":"999","COUNTRY_CODE":"US"},{"SEMIMAJOR_AXIS":"6727.684","APOAPSIS":"352.073","TLE_LINE2":"2 54192  53.2175   0.9876 0003751   3.1503 198.2526 15.73273960  1304","TLE_LINE1":"1 54192U 22141AM  22329.91667824 -.00008240  00000-0 -54117-4 0  9990","ELEMENT_SET_NO":"999","COUNTRY_CODE":"US","BSTAR":"-0.00005411700000","RA_OF_ASC_NODE":"0.9876","FILE":"3670141","MEAN_ELEMENT_THEORY":"SGP4","NORAD_CAT_ID":"54192","INCLINATION":"53.2175","MEAN_ANOMALY":"198.2526","MEAN_MOTION":"15.73273960","DECAY_DATE":null,"GP_ID":"218823922","ECCENTRICITY":"0.00037510","PERIAPSIS":"347.026","RCS_SIZE":"LARGE","REV_AT_EPOCH":"130","TIME_SYSTEM":"UTC","MEAN_MOTION_DOT":"-0.00008240","LAUNCH_DATE":"2022-10-28","PERIOD":"91.529","OBJECT_NAME":"STARLINK-5268","MEAN_MOTION_DDOT":"0.0000000000000","REF_FRAME":"TEME","ARG_OF_PERICENTER":"3.1503","CLASSIFICATION_TYPE":"U","EPHEMERIS_TYPE":"0","SITE":"AFWTR","OBJECT_ID":"2022-141AM","OBJECT_TYPE":"PAYLOAD","EPOCH":"2022-11-25T22:00:00.999936","CENTER_NAME":"EARTH"},{"MEAN_MOTION":"15.73248073","NORAD_CAT_ID":"54193","INCLINATION":"53.2168","MEAN_ANOMALY":"192.8096","ECCENTRICITY":"0.00037070","PERIAPSIS":"347.129","GP_ID":"218824088","DECAY_DATE":null,"SEMIMAJOR_AXIS":"6727.758","APOAPSIS":"352.117","RA_OF_ASC_NODE":"0.9947","BSTAR":"-0.00016860000000","FILE":"3670141","MEAN_ELEMENT_THEORY":"SGP4","TLE_LINE2":"2 54193  53.2168   0.9947 0003707   4.4679 192.8096 15.73248073  1304","TLE_LINE1":"1 54193U 22141AN  22329.91667824 -.00024276  00000-0 -16860-3 0  9990","ELEMENT_SET_NO":"999","COUNTRY_CODE":"US","EPOCH":"2022-11-25T22:00:00.999936","OBJECT_TYPE":"PAYLOAD","CLASSIFICATION_TYPE":"U","ARG_OF_PERICENTER":"4.4679","OBJECT_ID":"2022-141AN","SITE":"AFWTR","EPHEMERIS_TYPE":"0","CENTER_NAME":"EARTH","REV_AT_EPOCH":"130","TIME_SYSTEM":"UTC","RCS_SIZE":"LARGE","OBJECT_NAME":"STARLINK-5263","MEAN_MOTION_DDOT":"0.0000000000000","REF_FRAME":"TEME","LAUNCH_DATE":"2022-10-28","MEAN_MOTION_DOT":"-0.00024276","PERIOD":"91.530"},{"APOAPSIS":"351.980","SEMIMAJOR_AXIS":"6727.690","FILE":"3670141","MEAN_ELEMENT_THEORY":"SGP4","RA_OF_ASC_NODE":"0.9932","BSTAR":"-0.00017765000000","COUNTRY_CODE":"US","ELEMENT_SET_NO":"999","TLE_LINE2":"2 54194  53.2175   0.9932 0003605   9.1534 189.2948 15.73272078  1304","TLE_LINE1":"1 54194U 22141AP  22329.91667824 -.00025567  00000-0 -17765-3 0  9990","MEAN_MOTION":"15.73272078","MEAN_ANOMALY":"189.2948","NORAD_CAT_ID":"54194","INCLINATION":"53.2175","PERIAPSIS":"347.129","ECCENTRICITY":"0.00036050","GP_ID":"218822878","DECAY_DATE":null,"TIME_SYSTEM":"UTC","REV_AT_EPOCH":"130","RCS_SIZE":"LARGE","REF_FRAME":"TEME","OBJECT_NAME":"STARLINK-5271","MEAN_MOTION_DDOT":"0.0000000000000","PERIOD":"91.529","MEAN_MOTION_DOT":"-0.00025567","LAUNCH_DATE":"2022-10-28","EPOCH":"2022-11-25T22:00:00.999936","OBJECT_TYPE":"PAYLOAD","OBJECT_ID":"2022-141AP","EPHEMERIS_TYPE":"0","SITE":"AFWTR","CLASSIFICATION_TYPE":"U","ARG_OF_PERICENTER":"9.1534","CENTER_NAME":"EARTH"},{"PERIOD":"91.532","LAUNCH_DATE":"2022-10-28","MEAN_MOTION_DOT":"0.00039998","REF_FRAME":"TEME","MEAN_MOTION_DDOT":"0.0000000000000","OBJECT_NAME":"STARLINK-5258","RCS_SIZE":"LARGE","TIME_SYSTEM":"UTC","REV_AT_EPOCH":"130","CENTER_NAME":"EARTH","SITE":"AFWTR","EPHEMERIS_TYPE":"0","OBJECT_ID":"2022-141AQ","ARG_OF_PERICENTER":"10.7916","CLASSIFICATION_TYPE":"U","OBJECT_TYPE":"PAYLOAD","EPOCH":"2022-11-25T22:00:00.999936","COUNTRY_CODE":"US","ELEMENT_SET_NO":"999","TLE_LINE2":"2 54195  53.2176   0.9975 0003271  10.7916 185.9437 15.73214428  1305","TLE_LINE1":"1 54195U 22141AQ  22329.91667824  .00039998  00000-0  28782-3 0  9993","MEAN_ELEMENT_THEORY":"SGP4","FILE":"3670141","RA_OF_ASC_NODE":"0.9975","BSTAR":"0.00028782000000","APOAPSIS":"351.920","SEMIMAJOR_AXIS":"6727.854","DECAY_DATE":null,"GP_ID":"218823053","PERIAPSIS":"347.518","ECCENTRICITY":"0.00032710","MEAN_ANOMALY":"185.9437","INCLINATION":"53.2176","NORAD_CAT_ID":"54195","MEAN_MOTION":"15.73214428"},{"COUNTRY_CODE":"US","ELEMENT_SET_NO":"999","TLE_LINE2":"2 54196  53.2172   0.9904 0003333  14.9700 184.6119 15.73307342  1301","TLE_LINE1":"1 54196U 22141AR  22329.91667824 -.00070666  00000-0 -50080-3 0  9999","FILE":"3670141","MEAN_ELEMENT_THEORY":"SGP4","BSTAR":"-0.00050080000000","RA_OF_ASC_NODE":"0.9904","APOAPSIS":"351.696","SEMIMAJOR_AXIS":"6727.589","DECAY_DATE":null,"GP_ID":"218823589","PERIAPSIS":"347.212","ECCENTRICITY":"0.00033330","MEAN_ANOMALY":"184.6119","NORAD_CAT_ID":"54196","INCLINATION":"53.2172","MEAN_MOTION":"15.73307342","PERIOD":"91.527","MEAN_MOTION_DOT":"-0.00070666","LAUNCH_DATE":"2022-10-28","REF_FRAME":"TEME","MEAN_MOTION_DDOT":"0.0000000000000","OBJECT_NAME":"STARLINK-5237","RCS_SIZE":"LARGE","TIME_SYSTEM":"UTC","REV_AT_EPOCH":"130","CENTER_NAME":"EARTH","SITE":"AFWTR","EPHEMERIS_TYPE":"0","OBJECT_ID":"2022-141AR","ARG_OF_PERICENTER":"14.9700","CLASSIFICATION_TYPE":"U","OBJECT_TYPE":"PAYLOAD","EPOCH":"2022-11-25T22:00:00.999936"},{"APOAPSIS":"352.341","SEMIMAJOR_AXIS":"6728.082","COUNTRY_CODE":"US","ELEMENT_SET_NO":"999","TLE_LINE2":"2 54197  53.2181   0.9961 0003557  16.8347 181.1077 15.73134349  1301","TLE_LINE1":"1 54197U 22141AS  22329.91667824  .00092626  00000-0  65882-3 0  9994","MEAN_ELEMENT_THEORY":"SGP4","FILE":"3670141","BSTAR":"0.00065882000000","RA_OF_ASC_NODE":"0.9961","MEAN_ANOMALY":"181.1077","NORAD_CAT_ID":"54197","INCLINATION":"53.2181","MEAN_MOTION":"15.73134349","GP_ID":"218823755","DECAY_DATE":null,"PERIAPSIS":"347.554","ECCENTRICITY":"0.00035570","RCS_SIZE":"LARGE","TIME_SYSTEM":"UTC","REV_AT_EPOCH":"130","PERIOD":"91.537","MEAN_MOTION_DOT":"0.00092626","LAUNCH_DATE":"2022-10-28","REF_FRAME":"TEME","OBJECT_NAME":"STARLINK-5234","MEAN_MOTION_DDOT":"0.0000000000000","OBJECT_ID":"2022-141AS","SITE":"AFWTR","EPHEMERIS_TYPE":"0","CLASSIFICATION_TYPE":"U","ARG_OF_PERICENTER":"16.8347","EPOCH":"2022-11-25T22:00:00.999936","OBJECT_TYPE":"PAYLOAD","CENTER_NAME":"EARTH"},{"REF_FRAME":"TEME","OBJECT_NAME":"STARLINK-5246","MEAN_MOTION_DDOT":"0.0000000000000","PERIOD":"91.530","LAUNCH_DATE":"2022-10-28","MEAN_MOTION_DOT":"-0.00050359","TIME_SYSTEM":"UTC","REV_AT_EPOCH":"130","RCS_SIZE":"LARGE","CENTER_NAME":"EARTH","EPOCH":"2022-11-25T22:00:00.999936","OBJECT_TYPE":"PAYLOAD","OBJECT_ID":"2022-141AT","SITE":"AFWTR","EPHEMERIS_TYPE":"0","CLASSIFICATION_TYPE":"U","ARG_OF_PERICENTER":"12.2882","FILE":"3670141","MEAN_ELEMENT_THEORY":"SGP4","RA_OF_ASC_NODE":"0.9887","BSTAR":"-0.00035559000000","COUNTRY_CODE":"US","ELEMENT_SET_NO":"999","TLE_LINE2":"2 54198  53.2173   0.9887 0003230  12.2882 187.9768 15.73253380  1300","TLE_LINE1":"1 54198U 22141AT  22329.91667824 -.00050359  00000-0 -35559-3 0  9992","APOAPSIS":"351.781","SEMIMAJOR_AXIS":"6727.743","PERIAPSIS":"347.435","ECCENTRICITY":"0.00032300","GP_ID":"218823245","DECAY_DATE":null,"MEAN_MOTION":"15.73253380","MEAN_ANOMALY":"187.9768","NORAD_CAT_ID":"54198","INCLINATION":"53.2173"}];
